{"fetched_at":"2026-07-12T05:52:35.453Z","source":"https://celestrak.org/NORAD/elements/gp.php?GROUP=planet&FORMAT=JSON","constellation":"skysat","records":[{"OBJECT_NAME":"SKYSAT-B","OBJECT_ID":"2014-037D","EPOCH":"2026-07-11T20:53:17.414016","CLASSIFICATION_TYPE":"U","MEAN_MOTION":14.88087332,"ECCENTRICITY":0.0005309,"INCLINATION":98.3853,"RA_OF_ASC_NODE":153.2453,"ARG_OF_PERICENTER":183.368,"MEAN_ANOMALY":176.75,"EPHEMERIS_TYPE":0,"NORAD_CAT_ID":40072,"ELEMENT_SET_NO":999,"REV_AT_EPOCH":64963,"BSTAR":0.000079264,"MEAN_MOTION_DOT":0.00000667,"MEAN_MOTION_DDOT":0},{"OBJECT_NAME":"SKYSAT-C1","OBJECT_ID":"2016-040C","EPOCH":"2026-07-11T15:19:14.131200","CLASSIFICATION_TYPE":"U","MEAN_MOTION":15.36708815,"ECCENTRICITY":0.0000645,"INCLINATION":96.9557,"RA_OF_ASC_NODE":223.0369,"ARG_OF_PERICENTER":355.4804,"MEAN_ANOMALY":4.6435,"EPHEMERIS_TYPE":0,"NORAD_CAT_ID":41601,"ELEMENT_SET_NO":999,"REV_AT_EPOCH":56162,"BSTAR":0.00015589,"MEAN_MOTION_DOT":0.00005514,"MEAN_MOTION_DDOT":0},{"OBJECT_NAME":"SKYSAT-C2","OBJECT_ID":"2016-058D","EPOCH":"2026-07-11T14:08:03.537312","CLASSIFICATION_TYPE":"U","MEAN_MOTION":15.42624716,"ECCENTRICITY":0.0001944,"INCLINATION":97.016,"RA_OF_ASC_NODE":213.7722,"ARG_OF_PERICENTER":8.4873,"MEAN_ANOMALY":351.6408,"EPHEMERIS_TYPE":0,"NORAD_CAT_ID":41773,"ELEMENT_SET_NO":999,"REV_AT_EPOCH":54881,"BSTAR":0.00017446,"MEAN_MOTION_DOT":0.00007511,"MEAN_MOTION_DDOT":0},{"OBJECT_NAME":"SKYSAT-C3","OBJECT_ID":"2016-058E","EPOCH":"2026-07-11T15:03:29.325600","CLASSIFICATION_TYPE":"U","MEAN_MOTION":15.5359318,"ECCENTRICITY":0.0002311,"INCLINATION":96.9,"RA_OF_ASC_NODE":222.5485,"ARG_OF_PERICENTER":132.6735,"MEAN_ANOMALY":227.4714,"EPHEMERIS_TYPE":0,"NORAD_CAT_ID":41774,"ELEMENT_SET_NO":999,"REV_AT_EPOCH":54990,"BSTAR":0.00024355,"MEAN_MOTION_DOT":0.00015432,"MEAN_MOTION_DDOT":0},{"OBJECT_NAME":"SKYSAT-C11","OBJECT_ID":"2017-068A","EPOCH":"2026-07-11T17:05:26.412000","CLASSIFICATION_TYPE":"U","MEAN_MOTION":15.59189206,"ECCENTRICITY":0.0000958,"INCLINATION":97.4366,"RA_OF_ASC_NODE":342.6375,"ARG_OF_PERICENTER":163.574,"MEAN_ANOMALY":196.5548,"EPHEMERIS_TYPE":0,"NORAD_CAT_ID":42987,"ELEMENT_SET_NO":999,"REV_AT_EPOCH":48706,"BSTAR":0.00024139,"MEAN_MOTION_DOT":0.00018813,"MEAN_MOTION_DDOT":0},{"OBJECT_NAME":"SKYSAT-C9","OBJECT_ID":"2017-068C","EPOCH":"2026-07-11T04:28:53.357088","CLASSIFICATION_TYPE":"U","MEAN_MOTION":15.42149851,"ECCENTRICITY":0.00089454,"INCLINATION":97.4444,"RA_OF_ASC_NODE":330.445,"ARG_OF_PERICENTER":57.4451,"MEAN_ANOMALY":302.7659,"EPHEMERIS_TYPE":0,"NORAD_CAT_ID":42989,"ELEMENT_SET_NO":999,"REV_AT_EPOCH":48645,"BSTAR":0.00019496411,"MEAN_MOTION_DOT":0.00008274,"MEAN_MOTION_DDOT":0},{"OBJECT_NAME":"SKYSAT-C8","OBJECT_ID":"2017-068D","EPOCH":"2026-07-11T20:51:57.265056","CLASSIFICATION_TYPE":"U","MEAN_MOTION":15.37449279,"ECCENTRICITY":0.0001248,"INCLINATION":97.4545,"RA_OF_ASC_NODE":329.8628,"ARG_OF_PERICENTER":101.2013,"MEAN_ANOMALY":258.9372,"EPHEMERIS_TYPE":0,"NORAD_CAT_ID":42990,"ELEMENT_SET_NO":999,"REV_AT_EPOCH":48610,"BSTAR":0.00017273,"MEAN_MOTION_DOT":0.00006258,"MEAN_MOTION_DDOT":0},{"OBJECT_NAME":"SKYSAT-C7","OBJECT_ID":"2017-068E","EPOCH":"2026-07-11T20:43:51.698784","CLASSIFICATION_TYPE":"U","MEAN_MOTION":15.374005,"ECCENTRICITY":0.0005989,"INCLINATION":97.4553,"RA_OF_ASC_NODE":330.8482,"ARG_OF_PERICENTER":32.7055,"MEAN_ANOMALY":327.4559,"EPHEMERIS_TYPE":0,"NORAD_CAT_ID":42991,"ELEMENT_SET_NO":999,"REV_AT_EPOCH":48616,"BSTAR":0.00017196,"MEAN_MOTION_DOT":0.00006223,"MEAN_MOTION_DDOT":0},{"OBJECT_NAME":"SKYSAT-C6","OBJECT_ID":"2017-068F","EPOCH":"2026-07-11T20:47:50.824608","CLASSIFICATION_TYPE":"U","MEAN_MOTION":15.3413333,"ECCENTRICITY":0.0005162,"INCLINATION":97.4592,"RA_OF_ASC_NODE":330.7193,"ARG_OF_PERICENTER":97.3545,"MEAN_ANOMALY":262.8285,"EPHEMERIS_TYPE":0,"NORAD_CAT_ID":42992,"ELEMENT_SET_NO":999,"REV_AT_EPOCH":48610,"BSTAR":0.00017431,"MEAN_MOTION_DOT":0.00005678,"MEAN_MOTION_DDOT":0}]}
